STARLINK-3210           
1 49755U 21115AH  25314.76780023  .00000235  00000+0  32862-4 0  9992
2 49755  53.2178 323.0299 0001383  96.7420 263.3730 15.08838035217587
STARLINK-3207           
1 49756U 21115AJ  25314.71993985 -.00000998  00000+0 -44615-4 0  9998
2 49756  53.2172 313.1947 0001512  91.3869 268.7297 15.08820143217717
STARLINK-3197           
1 49757U 21115AK  25314.38231844  .00000149  00000+0  27458-4 0  9993
2 49757  53.2180 314.7239 0001432  89.0927 271.0229 15.08835670217665
STARLINK-3194           
1 49758U 21115AL  25314.32984360 -.00000147  00000+0  88866-5 0  9996
2 49758  53.2168 314.9459 0001469  85.5437 274.5723 15.08835118217658
STARLINK-3204           
1 49759U 21115AM  25314.71623913 -.00000265  00000+0  14168-5 0  9999
2 49759  53.2191 313.2124 0001497  90.0468 270.0696 15.08841162217715
STARLINK-3199           
1 49760U 21115AN  25314.93335615  .00000049  00000+0  21165-4 0  9997
2 49760  53.2177 312.2375 0001552  90.6203 269.4967 15.08844546217759
STARLINK-3203           
1 49761U 21115AP  25314.92232066 -.00000108  00000+0  11309-4 0  9999
2 49761  53.2160 312.2880 0001531  85.5878 274.5290 15.08849316217746
STARLINK-3195           
1 49762U 21115AQ  25314.27831529  .00000957  00000+0  78185-4 0  9993
2 49762  53.2184 315.1793 0001175  82.8237 277.2889 15.08840352217656
STARLINK-3198           
1 49763U 21115AR  25314.73096034 -.00001019  00000+0 -45953-4 0  9998
2 49763  53.2175 313.1471 0001441  88.7815 271.3342 15.08839529217722
STARLINK-3227           
1 49765U 21115AT  25314.73927568  .00000102  00000+0  24536-4 0  9999
2 49765  53.2171 313.1196 0001288  90.1693 269.9447 15.08818092217725
STARLINK-3190           
1 49766U 21115AU  25314.42279672 -.00001030  00000+0 -46624-4 0  9997
2 49766  53.2180 314.5394 0001398  95.6868 264.4283 15.08835391217670
STARLINK-3192           
1 49767U 21115AV  25314.28199908 -.00001025  00000+0 -46346-4 0  9990
2 49767  53.2176 315.1623 0001405  92.5197 267.5956 15.08838162217656
STARLINK-3196           
1 49768U 21115AW  25314.95911802  .00000656  00000+0  59333-4 0  9997
2 49768  53.2185 312.1246 0001433  98.0260 262.0895 15.08834806217752
STARLINK-3208           
1 49769U 21115AX  25314.96008133  .00000524  00000+0  50985-4 0  9991
2 49769  53.2179 312.1674 0001388  88.2451 271.8700 15.08835224217751
STARLINK-3191           
1 49770U 21115AY  25314.70248212  .00001054  00000+0  84330-4 0  9999
2 49770  53.2190 313.3259 0001289  90.0394 270.0746 15.08830487218832
STARLINK-3201           
1 49771U 21115AZ  25314.70153288  .00005163  00000+0  34219-3 0  9993
2 49771  53.2166 313.2784 0001494  98.2834 261.8328 15.08848514217715
