[{"OBJECT_NAME":"STARLINK-3210","OBJECT_ID":"2021-115AH","EPOCH":"2025-11-10T18:25:37.939872","MEAN_MOTION":15.08838035,"ECCENTRICITY":0.00013839,"INCLINATION":53.2178,"RA_OF_ASC_NODE":323.0299,"ARG_OF_PERICENTER":96.742,"MEAN_ANOMALY":263.373,"EPHEMERIS_TYPE":0,"CLASSIFICATION_TYPE":"U","NORAD_CAT_ID":49755,"ELEMENT_SET_NO":999,"REV_AT_EPOCH":21758,"BSTAR":3.2861787e-5,"MEAN_MOTION_DOT":2.35e-6,"MEAN_MOTION_DDOT":0},{"OBJECT_NAME":"STARLINK-3207","OBJECT_ID":"2021-115AJ","EPOCH":"2025-11-10T17:16:42.803040","MEAN_MOTION":15.08820143,"ECCENTRICITY":0.00015128,"INCLINATION":53.2172,"RA_OF_ASC_NODE":313.1947,"ARG_OF_PERICENTER":91.3869,"MEAN_ANOMALY":268.7297,"EPHEMERIS_TYPE":0,"CLASSIFICATION_TYPE":"U","NORAD_CAT_ID":49756,"ELEMENT_SET_NO":999,"REV_AT_EPOCH":21771,"BSTAR":-4.4615037e-5,"MEAN_MOTION_DOT":-9.98e-6,"MEAN_MOTION_DDOT":0},{"OBJECT_NAME":"STARLINK-3197","OBJECT_ID":"2021-115AK","EPOCH":"2025-11-10T09:10:32.313216","MEAN_MOTION":15.0883567,"ECCENTRICITY":0.0001432,"INCLINATION":53.218,"RA_OF_ASC_NODE":314.7239,"ARG_OF_PERICENTER":89.0927,"MEAN_ANOMALY":271.0229,"EPHEMERIS_TYPE":0,"CLASSIFICATION_TYPE":"U","NORAD_CAT_ID":49757,"ELEMENT_SET_NO":999,"REV_AT_EPOCH":21766,"BSTAR":2.7457627e-5,"MEAN_MOTION_DOT":1.49e-6,"MEAN_MOTION_DDOT":0},{"OBJECT_NAME":"STARLINK-3194","OBJECT_ID":"2021-115AL","EPOCH":"2025-11-10T07:54:58.487040","MEAN_MOTION":15.08835118,"ECCENTRICITY":0.00014699,"INCLINATION":53.2168,"RA_OF_ASC_NODE":314.9459,"ARG_OF_PERICENTER":85.5437,"MEAN_ANOMALY":274.5723,"EPHEMERIS_TYPE":0,"CLASSIFICATION_TYPE":"U","NORAD_CAT_ID":49758,"ELEMENT_SET_NO":999,"REV_AT_EPOCH":21765,"BSTAR":8.88663e-6,"MEAN_MOTION_DOT":-1.47e-6,"MEAN_MOTION_DDOT":0},{"OBJECT_NAME":"STARLINK-3204","OBJECT_ID":"2021-115AM","EPOCH":"2025-11-10T17:11:23.060832","MEAN_MOTION":15.08841162,"ECCENTRICITY":0.00014977,"INCLINATION":53.2191,"RA_OF_ASC_NODE":313.2124,"ARG_OF_PERICENTER":90.0468,"MEAN_ANOMALY":270.0696,"EPHEMERIS_TYPE":0,"CLASSIFICATION_TYPE":"U","NORAD_CAT_ID":49759,"ELEMENT_SET_NO":999,"REV_AT_EPOCH":21771,"BSTAR":1.416824e-6,"MEAN_MOTION_DOT":-2.65e-6,"MEAN_MOTION_DDOT":0},{"OBJECT_NAME":"STARLINK-3199","OBJECT_ID":"2021-115AN","EPOCH":"2025-11-10T22:24:01.971360","MEAN_MOTION":15.08844546,"ECCENTRICITY":0.00015526,"INCLINATION":53.2177,"RA_OF_ASC_NODE":312.2375,"ARG_OF_PERICENTER":90.6203,"MEAN_ANOMALY":269.4967,"EPHEMERIS_TYPE":0,"CLASSIFICATION_TYPE":"U","NORAD_CAT_ID":49760,"ELEMENT_SET_NO":999,"REV_AT_EPOCH":21775,"BSTAR":2.1165354e-5,"MEAN_MOTION_DOT":4.9e-7,"MEAN_MOTION_DDOT":0},{"OBJECT_NAME":"STARLINK-3203","OBJECT_ID":"2021-115AP","EPOCH":"2025-11-10T22:08:08.505024","MEAN_MOTION":15.08849316,"ECCENTRICITY":0.00015314,"INCLINATION":53.216,"RA_OF_ASC_NODE":312.288,"ARG_OF_PERICENTER":85.5878,"MEAN_ANOMALY":274.529,"EPHEMERIS_TYPE":0,"CLASSIFICATION_TYPE":"U","NORAD_CAT_ID":49761,"ELEMENT_SET_NO":999,"REV_AT_EPOCH":21774,"BSTAR":1.1308933e-5,"MEAN_MOTION_DOT":-1.08e-6,"MEAN_MOTION_DDOT":0},{"OBJECT_NAME":"STARLINK-3195","OBJECT_ID":"2021-115AQ","EPOCH":"2025-11-10T06:40:46.441056","MEAN_MOTION":15.08840352,"ECCENTRICITY":0.00011757,"INCLINATION":53.2184,"RA_OF_ASC_NODE":315.1793,"ARG_OF_PERICENTER":82.8237,"MEAN_ANOMALY":277.2889,"EPHEMERIS_TYPE":0,"CLASSIFICATION_TYPE":"U","NORAD_CAT_ID":49762,"ELEMENT_SET_NO":999,"REV_AT_EPOCH":21765,"BSTAR":7.8185132e-5,"MEAN_MOTION_DOT":9.57e-6,"MEAN_MOTION_DDOT":0},{"OBJECT_NAME":"STARLINK-3198","OBJECT_ID":"2021-115AR","EPOCH":"2025-11-10T17:32:34.973376","MEAN_MOTION":15.08839529,"ECCENTRICITY":0.00014414,"INCLINATION":53.2175,"RA_OF_ASC_NODE":313.1471,"ARG_OF_PERICENTER":88.7815,"MEAN_ANOMALY":271.3342,"EPHEMERIS_TYPE":0,"CLASSIFICATION_TYPE":"U","NORAD_CAT_ID":49763,"ELEMENT_SET_NO":999,"REV_AT_EPOCH":21772,"BSTAR":-4.5953439e-5,"MEAN_MOTION_DOT":-1.019e-5,"MEAN_MOTION_DDOT":0},{"OBJECT_NAME":"STARLINK-3227","OBJECT_ID":"2021-115AT","EPOCH":"2025-11-10T17:44:33.418752","MEAN_MOTION":15.08818092,"ECCENTRICITY":0.0001288,"INCLINATION":53.2171,"RA_OF_ASC_NODE":313.1196,"ARG_OF_PERICENTER":90.1693,"MEAN_ANOMALY":269.9447,"EPHEMERIS_TYPE":0,"CLASSIFICATION_TYPE":"U","NORAD_CAT_ID":49765,"ELEMENT_SET_NO":999,"REV_AT_EPOCH":21772,"BSTAR":2.4535924e-5,"MEAN_MOTION_DOT":1.02e-6,"MEAN_MOTION_DDOT":0},{"OBJECT_NAME":"STARLINK-3190","OBJECT_ID":"2021-115AU","EPOCH":"2025-11-10T10:08:49.636608","MEAN_MOTION":15.08835391,"ECCENTRICITY":0.00013982,"INCLINATION":53.218,"RA_OF_ASC_NODE":314.5394,"ARG_OF_PERICENTER":95.6868,"MEAN_ANOMALY":264.4283,"EPHEMERIS_TYPE":0,"CLASSIFICATION_TYPE":"U","NORAD_CAT_ID":49766,"ELEMENT_SET_NO":999,"REV_AT_EPOCH":21767,"BSTAR":-4.6624463e-5,"MEAN_MOTION_DOT":-1.03e-5,"MEAN_MOTION_DDOT":0},{"OBJECT_NAME":"STARLINK-3192","OBJECT_ID":"2021-115AV","EPOCH":"2025-11-10T06:46:04.720512","MEAN_MOTION":15.08838162,"ECCENTRICITY":0.00014056,"INCLINATION":53.2176,"RA_OF_ASC_NODE":315.1623,"ARG_OF_PERICENTER":92.5197,"MEAN_ANOMALY":267.5956,"EPHEMERIS_TYPE":0,"CLASSIFICATION_TYPE":"U","NORAD_CAT_ID":49767,"ELEMENT_SET_NO":999,"REV_AT_EPOCH":21765,"BSTAR":-4.6346475e-5,"MEAN_MOTION_DOT":-1.025e-5,"MEAN_MOTION_DDOT":0},{"OBJECT_NAME":"STARLINK-3196","OBJECT_ID":"2021-115AW","EPOCH":"2025-11-10T23:01:07.796928","MEAN_MOTION":15.08834806,"ECCENTRICITY":0.0001433,"INCLINATION":53.2185,"RA_OF_ASC_NODE":312.1246,"ARG_OF_PERICENTER":98.026,"MEAN_ANOMALY":262.0895,"EPHEMERIS_TYPE":0,"CLASSIFICATION_TYPE":"U","NORAD_CAT_ID":49768,"ELEMENT_SET_NO":999,"REV_AT_EPOCH":21775,"BSTAR":5.9332828e-5,"MEAN_MOTION_DOT":6.56e-6,"MEAN_MOTION_DDOT":0},{"OBJECT_NAME":"STARLINK-3208","OBJECT_ID":"2021-115AX","EPOCH":"2025-11-10T23:02:31.026912","MEAN_MOTION":15.08835224,"ECCENTRICITY":0.0001388,"INCLINATION":53.2179,"RA_OF_ASC_NODE":312.1674,"ARG_OF_PERICENTER":88.2451,"MEAN_ANOMALY":271.87,"EPHEMERIS_TYPE":0,"CLASSIFICATION_TYPE":"U","NORAD_CAT_ID":49769,"ELEMENT_SET_NO":999,"REV_AT_EPOCH":21775,"BSTAR":5.0985284e-5,"MEAN_MOTION_DOT":5.24e-6,"MEAN_MOTION_DDOT":0},{"OBJECT_NAME":"STARLINK-3191","OBJECT_ID":"2021-115AY","EPOCH":"2025-11-10T16:51:34.455168","MEAN_MOTION":15.08830487,"ECCENTRICITY":0.00012899,"INCLINATION":53.219,"RA_OF_ASC_NODE":313.3259,"ARG_OF_PERICENTER":90.0394,"MEAN_ANOMALY":270.0746,"EPHEMERIS_TYPE":0,"CLASSIFICATION_TYPE":"U","NORAD_CAT_ID":49770,"ELEMENT_SET_NO":999,"REV_AT_EPOCH":21883,"BSTAR":8.4330393e-5,"MEAN_MOTION_DOT":1.054e-5,"MEAN_MOTION_DDOT":0},{"OBJECT_NAME":"STARLINK-3201","OBJECT_ID":"2021-115AZ","EPOCH":"2025-11-10T16:50:12.440832","MEAN_MOTION":15.08848514,"ECCENTRICITY":0.0001494,"INCLINATION":53.2166,"RA_OF_ASC_NODE":313.2784,"ARG_OF_PERICENTER":98.2834,"MEAN_ANOMALY":261.8328,"EPHEMERIS_TYPE":0,"CLASSIFICATION_TYPE":"U","NORAD_CAT_ID":49771,"ELEMENT_SET_NO":999,"REV_AT_EPOCH":21771,"BSTAR":0.00034219279,"MEAN_MOTION_DOT":5.163e-5,"MEAN_MOTION_DDOT":0}]
